STARLINK-36254          
1 68338U 26059T   26106.25002315 -.01911577  00000+0 -18850-1 0  9998
2 68338  53.1599 174.6298 0000844  78.2586 318.0354 15.68317488  5089
STARLINK-37200          
1 68339U 26059U   26106.25002315 -.01911547  00000+0 -19135-1 0  9993
2 68339  53.1598 174.6469 0000841  82.4687 305.5979 15.67954629  5082
STARLINK-37185          
1 68340U 26059V   26106.25002315 -.01906719  00000+0 -22136-1 0  9995
2 68340  53.1599 174.7234 0000904  83.8237 266.5150 15.64298687  5081
STARLINK-37181          
1 68341U 26059W   26106.25002315 -.01910056  00000+0 -21132-1 0  9990
2 68341  53.1597 174.6810 0000791  89.2998 281.8152 15.65503968  5081
STARLINK-37192          
1 68342U 26059X   26106.25002315  .00021072  00000+0  38591-3 0  9998
2 68342  53.1598 175.6873 0000946  83.4091 151.8128 15.49308423  5085
STARLINK-37158          
1 68343U 26059Y   26106.25002315 -.01903470  00000+0 -24533-1 0  9992
2 68343  53.1602 174.7711 0001051  93.1302 233.4245 15.61651120  5080
STARLINK-36380          
1 68344U 26059Z   26106.25002315 -.01872967  00000+0 -26757-1 0  9999
2 68344  53.1600 174.8864 0001312  99.5030 170.6685 15.58934524  5085
STARLINK-37214          
1 68345U 26059AA  26106.25002315 -.01902397  00000+0 -24107-1 0  9998
2 68345  53.1600 174.7390 0000940  89.4929 252.6383 15.62082407  5085
STARLINK-37169          
1 68346U 26059AB  26106.25002315 -.01925274  00000+0 -26615-1 0  9994
2 68346  53.1601 174.8067 0000906  89.2878 219.4231 15.59888601  5081
STARLINK-37136          
1 68347U 26059AC  26106.25002315 -.01912042  00000+0 -20427-1 0  9999
2 68347  53.1590 174.5959 0000842  84.0362 328.0028 15.66367838  5089
STARLINK-37182          
1 68348U 26059AD  26106.25002315 -.01923455  00000+0 -24525-1 0  9993
2 68348  53.1598 174.7524 0000951  87.7676 248.0195 15.61961462  5081
STARLINK-37183          
1 68349U 26059AE  26106.25002315 -.01910778  00000+0 -20115-1 0  9999
2 68349  53.1595 174.5780 0000853  81.4867 339.2598 15.66727179  5085
CENTISPACE-1 OBJECT A   
1 68350U 26060A   26106.31311802  .00000336  00000+0  82721-4 0  9995
2 68350  54.9809 288.2026 0010413 336.5176  23.5346 14.73545726  3647
CENTISPACE-1 OBJECT B   
1 68351U 26060B   26106.24285366  .00000816  00000+0  15514-3 0  9991
2 68351  54.9812 288.4657 0010926 340.6848  19.3736 14.73765254  3630
CENTISPACE-1 OBJECT C   
1 68352U 26060C   26106.30918899 -.00000099  00000+0  16396-4 0  9997
2 68352  54.9803 288.1801 0009943   4.7264 355.3827 14.73746173  3640
CENTISPACE-1 OBJECT D   
1 68353U 26060D   26106.30722350 -.00000099  00000+0  16301-4 0  9999
2 68353  54.9819 288.1731 0011525   9.6637 350.4582 14.74293061  3645
