[{"OBJECT_NAME":"STARLINK-36254","OBJECT_ID":"2026-059T","EPOCH":"2026-04-16T06:00:02.000160","MEAN_MOTION":15.68317488,"ECCENTRICITY":8.443e-5,"INCLINATION":53.1599,"RA_OF_ASC_NODE":174.6298,"ARG_OF_PERICENTER":78.2586,"MEAN_ANOMALY":318.0354,"EPHEMERIS_TYPE":0,"CLASSIFICATION_TYPE":"U","NORAD_CAT_ID":68338,"ELEMENT_SET_NO":999,"REV_AT_EPOCH":508,"BSTAR":-0.018850408,"MEAN_MOTION_DOT":-0.01911577,"MEAN_MOTION_DDOT":0},{"OBJECT_NAME":"STARLINK-37200","OBJECT_ID":"2026-059U","EPOCH":"2026-04-16T06:00:02.000160","MEAN_MOTION":15.67954629,"ECCENTRICITY":8.411e-5,"INCLINATION":53.1598,"RA_OF_ASC_NODE":174.6469,"ARG_OF_PERICENTER":82.4687,"MEAN_ANOMALY":305.5979,"EPHEMERIS_TYPE":0,"CLASSIFICATION_TYPE":"U","NORAD_CAT_ID":68339,"ELEMENT_SET_NO":999,"REV_AT_EPOCH":508,"BSTAR":-0.019135075,"MEAN_MOTION_DOT":-0.01911547,"MEAN_MOTION_DDOT":0},{"OBJECT_NAME":"STARLINK-37185","OBJECT_ID":"2026-059V","EPOCH":"2026-04-16T06:00:02.000160","MEAN_MOTION":15.64298687,"ECCENTRICITY":9.042e-5,"INCLINATION":53.1599,"RA_OF_ASC_NODE":174.7234,"ARG_OF_PERICENTER":83.8237,"MEAN_ANOMALY":266.515,"EPHEMERIS_TYPE":0,"CLASSIFICATION_TYPE":"U","NORAD_CAT_ID":68340,"ELEMENT_SET_NO":999,"REV_AT_EPOCH":508,"BSTAR":-0.02213639,"MEAN_MOTION_DOT":-0.01906719,"MEAN_MOTION_DDOT":0},{"OBJECT_NAME":"STARLINK-37181","OBJECT_ID":"2026-059W","EPOCH":"2026-04-16T06:00:02.000160","MEAN_MOTION":15.65503968,"ECCENTRICITY":7.916e-5,"INCLINATION":53.1597,"RA_OF_ASC_NODE":174.681,"ARG_OF_PERICENTER":89.2998,"MEAN_ANOMALY":281.8152,"EPHEMERIS_TYPE":0,"CLASSIFICATION_TYPE":"U","NORAD_CAT_ID":68341,"ELEMENT_SET_NO":999,"REV_AT_EPOCH":508,"BSTAR":-0.021131659,"MEAN_MOTION_DOT":-0.01910056,"MEAN_MOTION_DDOT":0},{"OBJECT_NAME":"STARLINK-37192","OBJECT_ID":"2026-059X","EPOCH":"2026-04-16T06:00:02.000160","MEAN_MOTION":15.49308423,"ECCENTRICITY":9.467e-5,"INCLINATION":53.1598,"RA_OF_ASC_NODE":175.6873,"ARG_OF_PERICENTER":83.4091,"MEAN_ANOMALY":151.8128,"EPHEMERIS_TYPE":0,"CLASSIFICATION_TYPE":"U","NORAD_CAT_ID":68342,"ELEMENT_SET_NO":999,"REV_AT_EPOCH":508,"BSTAR":0.00038591131,"MEAN_MOTION_DOT":0.00021072,"MEAN_MOTION_DDOT":0},{"OBJECT_NAME":"STARLINK-37158","OBJECT_ID":"2026-059Y","EPOCH":"2026-04-16T06:00:02.000160","MEAN_MOTION":15.6165112,"ECCENTRICITY":0.00010516,"INCLINATION":53.1602,"RA_OF_ASC_NODE":174.7711,"ARG_OF_PERICENTER":93.1302,"MEAN_ANOMALY":233.4245,"EPHEMERIS_TYPE":0,"CLASSIFICATION_TYPE":"U","NORAD_CAT_ID":68343,"ELEMENT_SET_NO":999,"REV_AT_EPOCH":508,"BSTAR":-0.024532706,"MEAN_MOTION_DOT":-0.0190347,"MEAN_MOTION_DDOT":0},{"OBJECT_NAME":"STARLINK-36380","OBJECT_ID":"2026-059Z","EPOCH":"2026-04-16T06:00:02.000160","MEAN_MOTION":15.58934524,"ECCENTRICITY":0.00013125,"INCLINATION":53.16,"RA_OF_ASC_NODE":174.8864,"ARG_OF_PERICENTER":99.503,"MEAN_ANOMALY":170.6685,"EPHEMERIS_TYPE":0,"CLASSIFICATION_TYPE":"U","NORAD_CAT_ID":68344,"ELEMENT_SET_NO":999,"REV_AT_EPOCH":508,"BSTAR":-0.026756875,"MEAN_MOTION_DOT":-0.01872967,"MEAN_MOTION_DDOT":0},{"OBJECT_NAME":"STARLINK-37214","OBJECT_ID":"2026-059AA","EPOCH":"2026-04-16T06:00:02.000160","MEAN_MOTION":15.62082407,"ECCENTRICITY":9.401e-5,"INCLINATION":53.16,"RA_OF_ASC_NODE":174.739,"ARG_OF_PERICENTER":89.4929,"MEAN_ANOMALY":252.6383,"EPHEMERIS_TYPE":0,"CLASSIFICATION_TYPE":"U","NORAD_CAT_ID":68345,"ELEMENT_SET_NO":999,"REV_AT_EPOCH":508,"BSTAR":-0.024106974,"MEAN_MOTION_DOT":-0.01902397,"MEAN_MOTION_DDOT":0},{"OBJECT_NAME":"STARLINK-37169","OBJECT_ID":"2026-059AB","EPOCH":"2026-04-16T06:00:02.000160","MEAN_MOTION":15.59888601,"ECCENTRICITY":9.063e-5,"INCLINATION":53.1601,"RA_OF_ASC_NODE":174.8067,"ARG_OF_PERICENTER":89.2878,"MEAN_ANOMALY":219.4231,"EPHEMERIS_TYPE":0,"CLASSIFICATION_TYPE":"U","NORAD_CAT_ID":68346,"ELEMENT_SET_NO":999,"REV_AT_EPOCH":508,"BSTAR":-0.026614762,"MEAN_MOTION_DOT":-0.01925274,"MEAN_MOTION_DDOT":0},{"OBJECT_NAME":"STARLINK-37136","OBJECT_ID":"2026-059AC","EPOCH":"2026-04-16T06:00:02.000160","MEAN_MOTION":15.66367838,"ECCENTRICITY":8.428e-5,"INCLINATION":53.159,"RA_OF_ASC_NODE":174.5959,"ARG_OF_PERICENTER":84.0362,"MEAN_ANOMALY":328.0028,"EPHEMERIS_TYPE":0,"CLASSIFICATION_TYPE":"U","NORAD_CAT_ID":68347,"ELEMENT_SET_NO":999,"REV_AT_EPOCH":508,"BSTAR":-0.0204274,"MEAN_MOTION_DOT":-0.01912042,"MEAN_MOTION_DDOT":0},{"OBJECT_NAME":"STARLINK-37182","OBJECT_ID":"2026-059AD","EPOCH":"2026-04-16T06:00:02.000160","MEAN_MOTION":15.61961462,"ECCENTRICITY":9.513e-5,"INCLINATION":53.1598,"RA_OF_ASC_NODE":174.7524,"ARG_OF_PERICENTER":87.7676,"MEAN_ANOMALY":248.0195,"EPHEMERIS_TYPE":0,"CLASSIFICATION_TYPE":"U","NORAD_CAT_ID":68348,"ELEMENT_SET_NO":999,"REV_AT_EPOCH":508,"BSTAR":-0.024525426,"MEAN_MOTION_DOT":-0.01923455,"MEAN_MOTION_DDOT":0},{"OBJECT_NAME":"STARLINK-37183","OBJECT_ID":"2026-059AE","EPOCH":"2026-04-16T06:00:02.000160","MEAN_MOTION":15.66727179,"ECCENTRICITY":8.534e-5,"INCLINATION":53.1595,"RA_OF_ASC_NODE":174.578,"ARG_OF_PERICENTER":81.4867,"MEAN_ANOMALY":339.2598,"EPHEMERIS_TYPE":0,"CLASSIFICATION_TYPE":"U","NORAD_CAT_ID":68349,"ELEMENT_SET_NO":999,"REV_AT_EPOCH":508,"BSTAR":-0.020115091,"MEAN_MOTION_DOT":-0.01910778,"MEAN_MOTION_DDOT":0},{"OBJECT_NAME":"CENTISPACE-1 OBJECT A","OBJECT_ID":"2026-060A","EPOCH":"2026-04-16T07:30:53.396928","MEAN_MOTION":14.73545726,"ECCENTRICITY":0.00104137,"INCLINATION":54.9809,"RA_OF_ASC_NODE":288.2026,"ARG_OF_PERICENTER":336.5176,"MEAN_ANOMALY":23.5346,"EPHEMERIS_TYPE":0,"CLASSIFICATION_TYPE":"U","NORAD_CAT_ID":68350,"ELEMENT_SET_NO":999,"REV_AT_EPOCH":364,"BSTAR":8.272066e-5,"MEAN_MOTION_DOT":3.36e-6,"MEAN_MOTION_DDOT":0},{"OBJECT_NAME":"CENTISPACE-1 OBJECT B","OBJECT_ID":"2026-060B","EPOCH":"2026-04-16T05:49:42.556224","MEAN_MOTION":14.73765254,"ECCENTRICITY":0.00109264,"INCLINATION":54.9812,"RA_OF_ASC_NODE":288.4657,"ARG_OF_PERICENTER":340.6848,"MEAN_ANOMALY":19.3736,"EPHEMERIS_TYPE":0,"CLASSIFICATION_TYPE":"U","NORAD_CAT_ID":68351,"ELEMENT_SET_NO":999,"REV_AT_EPOCH":363,"BSTAR":0.0001551401,"MEAN_MOTION_DOT":8.16e-6,"MEAN_MOTION_DDOT":0},{"OBJECT_NAME":"CENTISPACE-1 OBJECT C","OBJECT_ID":"2026-060C","EPOCH":"2026-04-16T07:25:13.928736","MEAN_MOTION":14.73746173,"ECCENTRICITY":0.00099438,"INCLINATION":54.9803,"RA_OF_ASC_NODE":288.1801,"ARG_OF_PERICENTER":4.7264,"MEAN_ANOMALY":355.3827,"EPHEMERIS_TYPE":0,"CLASSIFICATION_TYPE":"U","NORAD_CAT_ID":68352,"ELEMENT_SET_NO":999,"REV_AT_EPOCH":364,"BSTAR":1.6396245e-5,"MEAN_MOTION_DOT":-9.9e-7,"MEAN_MOTION_DDOT":0},{"OBJECT_NAME":"CENTISPACE-1 OBJECT D","OBJECT_ID":"2026-060D","EPOCH":"2026-04-16T07:22:24.110400","MEAN_MOTION":14.74293061,"ECCENTRICITY":0.00115255,"INCLINATION":54.9819,"RA_OF_ASC_NODE":288.1731,"ARG_OF_PERICENTER":9.6637,"MEAN_ANOMALY":350.4582,"EPHEMERIS_TYPE":0,"CLASSIFICATION_TYPE":"U","NORAD_CAT_ID":68353,"ELEMENT_SET_NO":999,"REV_AT_EPOCH":364,"BSTAR":1.6301377e-5,"MEAN_MOTION_DOT":-9.9e-7,"MEAN_MOTION_DDOT":0}]
